[{"OBJECT_NAME":"STARLINK-4361","OBJECT_ID":"2022-099AE","EPOCH":"2026-03-10T00:00:02.999808","MEAN_MOTION":15.90064932,"ECCENTRICITY":0.00016791,"INCLINATION":97.645,"RA_OF_ASC_NODE":208.936,"ARG_OF_PERICENTER":107.5219,"MEAN_ANOMALY":104.039,"EPHEMERIS_TYPE":0,"CLASSIFICATION_TYPE":"U","NORAD_CAT_ID":53493,"ELEMENT_SET_NO":999,"REV_AT_EPOCH":595,"BSTAR":0.0019290803,"MEAN_MOTION_DOT":0.00574035,"MEAN_MOTION_DDOT":0.0001292126},{"OBJECT_NAME":"STARLINK-36906","OBJECT_ID":"2026-040X","EPOCH":"2026-03-09T22:00:01.999584","MEAN_MOTION":16.06844937,"ECCENTRICITY":8.552e-5,"INCLINATION":97.2771,"RA_OF_ASC_NODE":17.1293,"ARG_OF_PERICENTER":98.714,"MEAN_ANOMALY":295.6623,"EPHEMERIS_TYPE":0,"CLASSIFICATION_TYPE":"U","NORAD_CAT_ID":68036,"ELEMENT_SET_NO":999,"REV_AT_EPOCH":246,"BSTAR":-0.0015362547,"MEAN_MOTION_DOT":-0.01161463,"MEAN_MOTION_DDOT":0.00046868808}]
